{
    "links": {
        "self": "http://www.neowsapp.com/rest/v1/neo/3654054?api_key=iIulBulltgU6a56xZRHN4H3l9WmuAYTsLGpBGhQ2"
    },
    "id": "3654054",
    "neo_reference_id": "3654054",
    "name": "(2013 WP67)",
    "designation": "2013 WP67",
    "nasa_jpl_url": "http://ssd.jpl.nasa.gov/sbdb.cgi?sstr=3654054",
    "absolute_magnitude_h": 24.7,
    "estimated_diameter": {
        "kilometers": {
            "estimated_diameter_min": 0.0305179233,
            "estimated_diameter_max": 0.0682401509
        },
        "meters": {
            "estimated_diameter_min": 30.5179232594,
            "estimated_diameter_max": 68.2401509401
        },
        "miles": {
            "estimated_diameter_min": 0.0189629525,
            "estimated_diameter_max": 0.0424024508
        },
        "feet": {
            "estimated_diameter_min": 100.1244233463,
            "estimated_diameter_max": 223.8850168104
        }
    },
    "is_potentially_hazardous_asteroid": false,
    "close_approach_data": [
        {
            "close_approach_date": "2009-11-18",
            "close_approach_date_full": "2009-Nov-18 17:28",
            "epoch_date_close_approach": 1258565280000,
            "relative_velocity": {
                "kilometers_per_second": "12.213174001",
                "kilometers_per_hour": "43967.4264036709",
                "miles_per_hour": "27319.648922881"
            },
            "miss_distance": {
                "astronomical": "0.1188844702",
                "lunar": "46.2460589078",
                "kilometers": "17784863.517998474",
                "miles": "11051001.7483239812"
            },
            "orbiting_body": "Earth"
        },
        {
            "close_approach_date": "2013-05-31",
            "close_approach_date_full": "2013-May-31 02:41",
            "epoch_date_close_approach": 1369968060000,
            "relative_velocity": {
                "kilometers_per_second": "9.3599459262",
                "kilometers_per_hour": "33695.8053341916",
                "miles_per_hour": "20937.263042237"
            },
            "miss_distance": {
                "astronomical": "0.2640315705",
                "lunar": "102.7082809245",
                "kilometers": "39498560.559554835",
                "miles": "24543267.445273323"
            },
            "orbiting_body": "Earth"
        },
        {
            "close_approach_date": "2013-11-18",
            "close_approach_date_full": "2013-Nov-18 04:17",
            "epoch_date_close_approach": 1384748220000,
            "relative_velocity": {
                "kilometers_per_second": "11.0182213228",
                "kilometers_per_hour": "39665.5967621855",
                "miles_per_hour": "24646.6592770369"
            },
            "miss_distance": {
                "astronomical": "0.1000158193",
                "lunar": "38.9061537077",
                "kilometers": "14962153.533584891",
                "miles": "9297051.0957818558"
            },
            "orbiting_body": "Earth"
        },
        {
            "close_approach_date": "2017-11-18",
            "close_approach_date_full": "2017-Nov-18 14:18",
            "epoch_date_close_approach": 1511014680000,
            "relative_velocity": {
                "kilometers_per_second": "10.1941234032",
                "kilometers_per_hour": "36698.8442516024",
                "miles_per_hour": "22803.2346406693"
            },
            "miss_distance": {
                "astronomical": "0.1247987139",
                "lunar": "48.5466997071",
                "kilometers": "18669621.778179393",
                "miles": "11600765.0383379034"
            },
            "orbiting_body": "Earth"
        }
    ],
    "orbital_data": {
        "orbit_id": "5",
        "orbit_determination_date": "2019-07-17 06:09:59",
        "first_observation_date": "2013-11-25",
        "last_observation_date": "2013-11-30",
        "data_arc_in_days": 5,
        "observations_used": 22,
        "orbit_uncertainty": "8",
        "minimum_orbit_intersection": ".0997229",
        "jupiter_tisserand_invariant": "5.197",
        "epoch_osculation": "2456623.5",
        "eccentricity": ".2224832492529242",
        "semi_major_axis": "1.209215281344063",
        "inclination": "18.02664253959868",
        "ascending_node_longitude": "245.8473049483292",
        "orbital_period": "485.6840789187678",
        "perihelion_distance": ".9401851365043467",
        "perihelion_argument": "99.09562941073655",
        "aphelion_distance": "1.478245426183779",
        "perihelion_time": "2456549.696020740471",
        "mean_anomaly": "54.70517500301727",
        "mean_motion": ".7412225675616827",
        "equinox": "J2000",
        "orbit_class": {
            "orbit_class_type": "APO",
            "orbit_class_description": "Near-Earth asteroid orbits which cross the Earth’s orbit similar to that of 1862 Apollo",
            "orbit_class_range": "a (semi-major axis) > 1.0 AU; q (perihelion) < 1.017 AU"
        }
    },
    "is_sentry_object": false
}